NORAD_CAT_ID,OBJECT_NAME,OBJECT_TYPE,EPOCH,MEAN_MOTION,ECCENTRICITY,INCLINATION,RA_OF_ASC_NODE,ARG_OF_PERICENTER,MEAN_ANOMALY,BSTAR,MEAN_MOTION_DOT,MEAN_MOTION_DDOT,TLE_LINE0,TLE_LINE1,TLE_LINE2,SEMIMAJOR_AXIS,PERIOD,APOGEE,PERIGEE,DECAYED
52377.0,STARLINK-3805,PAYLOAD,2023-03-16 04:25:15,15.08857942,0.000153,53.2156,40.318,87.2933,272.8235,0.00050593,7.777e-05,0.0,0 STARLINK-3805,1 52377U 22045AY  23075.18420714  .00007777  00000-0  50593-3 0  9994,2 52377  53.2156  40.3180 0001530  87.2933 272.8235 15.08857942 51436,6917.826,95.436,540.749,538.632,0.0
52377.0,STARLINK-3805,PAYLOAD,2023-03-16 06:00:38,15.08862278,0.0001548,53.2158,40.0208,88.109,272.008,0.00076521,0.00011919,0.0,0 STARLINK-3805,1 52377U 22045AY  23075.25044624  .00011919  00000-0  76521-3 0  9996,2 52377  53.2158  40.0208 0001548  88.1090 272.0080 15.08862278 51448,6917.812,95.436,540.748,538.606,0.0
52377.0,STARLINK-3805,PAYLOAD,2023-03-16 21:54:30,15.08831755,0.0001336,53.2162,37.0459,89.0084,271.1061,0.00073409,0.00011412,0.0,0 STARLINK-3805,1 52377U 22045AY  23075.91285526  .00011412  00000-0  73409-3 0  9997,2 52377  53.2162  37.0459 0001336  89.0084 271.1061 15.08831755 51541,6917.906,95.438,540.695,538.846,0.0
52377.0,STARLINK-3805,PAYLOAD,2023-03-17 13:48:22,15.08838241,0.0001317,53.2169,34.0731,105.2042,254.9095,0.00053034,8.162e-05,0.0,0 STARLINK-3805,1 52377U 22045AY  23076.57525746  .00008162  00000-0  53034-3 0  9991,2 52377  53.2169  34.0731 0001317 105.2042 254.9095 15.08838241 51646,6917.886,95.438,540.662,538.84,0.0
52377.0,STARLINK-3805,PAYLOAD,2023-03-17 21:45:18,15.08834451,0.000157,53.218,32.5889,113.7162,246.3995,0.00028462,4.244e-05,0.0,0 STARLINK-3805,1 52377U 22045AY  23076.90646021  .00004244  00000-0  28462-3 0  9992,2 52377  53.2180  32.5889 0001570 113.7162 246.3995 15.08834451 51692,6917.897,95.438,540.848,538.676,0.0
52377.0,STARLINK-3805,PAYLOAD,2023-03-18 13:39:09,15.0883842,0.0001453,53.2169,29.6132,94.8048,265.3111,0.00042961,6.556e-05,0.0,0 STARLINK-3805,1 52377U 22045AY  23077.56886160  .00006556  00000-0  42961-3 0  9993,2 52377  53.2169  29.6132 0001453  94.8048 265.3111 15.08838420 51791,6917.885,95.438,540.755,538.745,0.0
52377.0,STARLINK-3805,PAYLOAD,2023-03-19 05:33:00,15.0884587,0.0001304,53.2174,26.6395,98.0186,262.0954,0.00029281,4.376e-05,0.0,0 STARLINK-3805,1 52377U 22045AY  23078.23125906  .00004376  00000-0  29281-3 0  9990,2 52377  53.2174  26.6395 0001304  98.0186 262.0954 15.08845870 51896,6917.862,95.437,540.63,538.825,0.0
52377.0,STARLINK-3805,PAYLOAD,2023-03-20 05:23:47,15.08848342,0.0001275,53.2169,22.1791,92.2311,267.8827,0.0002148,3.133e-05,0.0,0 STARLINK-3805,1 52377U 22045AY  23079.22485800  .00003133  00000-0  21480-3 0  9995,2 52377  53.2169  22.1791 0001275  92.2311 267.8827 15.08848342 52041,6917.855,95.437,540.602,538.838,0.0
52377.0,STARLINK-3805,PAYLOAD,2023-03-21 05:14:34,15.08851569,0.0001633,53.2166,17.7165,111.4277,248.6889,0.00035689,5.398e-05,0.0,0 STARLINK-3805,1 52377U 22045AY  23080.21845524  .00005398  00000-0  35689-3 0  9990,2 52377  53.2166  17.7165 0001633 111.4277 248.6889 15.08851569 52192,6917.845,95.437,540.84,538.58,0.0
52377.0,STARLINK-3805,PAYLOAD,2023-03-22 05:05:22,15.08838531,0.0001379,53.2165,13.2569,110.2657,249.8483,0.00016443,2.33e-05,0.0,0 STARLINK-3805,1 52377U 22045AY  23081.21206362  .00002330  00000-0  16443-3 0  9992,2 52377  53.2165  13.2569 0001379 110.2657 249.8483 15.08838531 52340,6917.885,95.438,540.704,538.796,0.0
52377.0,STARLINK-3805,PAYLOAD,2023-03-23 01:45:23,15.08848466,0.0001282,53.2169,9.3927,99.5831,260.5306,0.00042086,6.418e-05,0.0,0 STARLINK-3805,1 52377U 22045AY  23082.07318425  .00006418  00000-0  42086-3 0  9994,2 52377  53.2169   9.3927 0001282  99.5831 260.5306 15.08848466 52470,6917.855,95.437,540.606,538.833,0.0
52377.0,STARLINK-3805,PAYLOAD,2023-03-23 22:25:25,15.08829182,0.0001376,53.2166,5.5259,124.7284,235.3838,0.00014078,1.953e-05,0.0,0 STARLINK-3805,1 52377U 22045AY  23082.93431775  .00001953  00000-0  14078-3 0  9992,2 52377  53.2166   5.5259 0001376 124.7284 235.3838 15.08829182 52609,6917.913,95.438,540.73,538.827,0.0
52377.0,STARLINK-3805,PAYLOAD,2023-03-24 04:46:57,15.08888067,0.0001201,53.2169,4.3364,107.576,252.5363,0.002203,0.00034993,0.0,0 STARLINK-3805,1 52377U 22045AY  23083.19927345  .00034993  00000-0  22030-2 0  9990,2 52377  53.2169   4.3364 0001201 107.5760 252.5363 15.08888067 52646,6917.733,95.435,540.429,538.768,0.0
52377.0,STARLINK-3805,PAYLOAD,2023-03-24 22:16:12,15.08826307,0.0001113,53.2171,1.0661,116.5791,243.5315,0.00080776,0.00012586,0.0,0 STARLINK-3805,1 52377U 22045AY  23083.92792308  .00012586  00000-0  80776-3 0  9996,2 52377  53.2171   1.0661 0001113 116.5791 243.5315 15.08826307 52757,6917.922,95.438,540.557,539.017,0.0
52377.0,STARLINK-3805,PAYLOAD,2023-03-25 03:02:22,15.08839702,8.76e-05,53.2172,0.1751,90.2677,269.8416,0.0011908,0.00018714,0.0,0 STARLINK-3805,1 52377U 22045AY  23084.12664397  .00018714  00000-0  11908-2 0  9994,2 52377  53.2172   0.1751 0000876  90.2677 269.8416 15.08839702 52783,6917.881,95.438,540.352,539.14,0.0
52377.0,STARLINK-3805,PAYLOAD,2023-03-25 06:13:08,15.08852801,7.88e-05,53.2171,359.5792,87.6103,272.498,0.0014952,0.00023597,0.0,0 STARLINK-3805,1 52377U 22045AY  23084.25912193  .00023597  00000-0  14952-2 0  9995,2 52377  53.2171 359.5792 0000788  87.6103 272.4980 15.08852801 52808,6917.841,95.437,540.251,539.161,0.0
52377.0,STARLINK-3805,PAYLOAD,2023-03-25 22:06:59,15.08849888,8.92e-05,53.2166,356.6058,47.7912,312.3156,0.0009385,0.00014684,0.0,0 STARLINK-3805,1 52377U 22045AY  23084.92152224  .00014684  00000-0  93850-3 0  9992,2 52377  53.2166 356.6058 0000892  47.7912 312.3156 15.08849888 52907,6917.85,95.437,540.332,539.098,0.0
52377.0,STARLINK-3805,PAYLOAD,2023-03-26 04:28:31,15.08863471,7.35e-05,53.2163,355.4171,66.5851,293.5219,0.0011812,0.00018573,0.0,0 STARLINK-3805,1 52377U 22045AY  23085.18647702  .00018573  00000-0  11812-2 0  9999,2 52377  53.2163 355.4171 0000735  66.5851 293.5219 15.08863471 52942,6917.809,95.436,540.182,539.165,0.0
52377.0,STARLINK-3805,PAYLOAD,2023-03-26 21:57:45,15.08853042,8.2e-05,53.2161,352.1447,84.7504,275.3581,0.0007753,0.00012077,0.0,0 STARLINK-3805,1 52377U 22045AY  23085.91511524  .00012077  00000-0  77530-3 0  9995,2 52377  53.2161 352.1447 0000820  84.7504 275.3581 15.08853042 53058,6917.841,95.437,540.273,539.138,0.0
52377.0,STARLINK-3805,PAYLOAD,2023-03-27 02:43:55,15.08860592,0.0001062,53.2173,351.2522,78.013,282.0981,0.00075674,0.00011783,0.0,0 STARLINK-3805,1 52377U 22045AY  23086.11383319  .00011783  00000-0  75674-3 0  9997,2 52377  53.2173 351.2522 0001062  78.0130 282.0981 15.08860592 53085,6917.817,95.436,540.417,538.948,0.0
52377.0,STARLINK-3805,PAYLOAD,2023-03-27 21:48:32,15.08851077,0.0001306,53.2163,347.685,78.5512,281.5626,0.00065399,0.00010139,0.0,0 STARLINK-3805,1 52377U 22045AY  23086.90871000  .00010139  00000-0  65399-3 0  9990,2 52377  53.2163 347.6850 0001306  78.5512 281.5626 15.08851077 53209,6917.847,95.437,540.615,538.808,0.0
52377.0,STARLINK-3805,PAYLOAD,2023-03-28 02:34:41,15.0885801,8.46e-05,53.2164,346.793,87.5863,272.5226,0.0005077,7.805e-05,0.0,0 STARLINK-3805,1 52377U 22045AY  23087.10742536  .00007805  00000-0  50770-3 0  9997,2 52377  53.2164 346.7930 0000846  87.5863 272.5226 15.08858010 53239,6917.825,95.436,540.276,539.105,0.0
52377.0,STARLINK-3805,PAYLOAD,2023-03-28 21:39:19,15.08843532,7.71e-05,53.2169,343.2229,90.694,269.414,0.00023606,3.472e-05,0.0,0 STARLINK-3805,1 52377U 22045AY  23087.90230734  .00003472  00000-0  23606-3 0  9991,2 52377  53.2169 343.2229 0000771  90.6940 269.4140 15.08843532 53351,6917.87,95.437,540.268,539.201,0.0
52377.0,STARLINK-3805,PAYLOAD,2023-03-28 23:14:42,15.08844458,9.46e-05,53.2169,342.9258,81.9874,278.1225,0.00030468,4.565e-05,0.0,0 STARLINK-3805,1 52377U 22045AY  23087.96854795  .00004565  00000-0  30468-3 0  9994,2 52377  53.2169 342.9258 0000946  81.9874 278.1225 15.08844458 53362,6917.867,95.437,540.386,539.077,0.0
52377.0,STARLINK-3805,PAYLOAD,2023-03-29 02:25:28,15.0884714,9.76e-05,53.2167,342.3304,88.5426,271.5678,0.00044122,6.743e-05,0.0,0 STARLINK-3805,1 52377U 22045AY  23088.10102737  .00006743  00000-0  44122-3 0  9995,2 52377  53.2167 342.3304 0000976  88.5426 271.5678 15.08847140 53387,6917.859,95.437,540.399,539.048,0.0
52377.0,STARLINK-3805,PAYLOAD,2023-03-29 23:05:29,15.08844198,6.74e-05,53.2169,338.4666,83.2006,276.9063,0.00053284,8.204e-05,0.0,0 STARLINK-3805,1 52377U 22045AY  23088.96214923  .00008204  00000-0  53284-3 0  9993,2 52377  53.2169 338.4666 0000674  83.2006 276.9063 15.08844198 53519,6917.868,95.437,540.199,539.266,0.0
52377.0,STARLINK-3805,PAYLOAD,2023-03-30 02:16:15,15.08852951,8.7e-05,53.2166,337.8704,90.4154,269.6938,0.000864,0.00013494,0.0,0 STARLINK-3805,1 52377U 22045AY  23089.09462805  .00013494  00000-0  86400-3 0  9995,2 52377  53.2166 337.8704 0000870  90.4154 269.6938 15.08852951 53532,6917.841,95.437,540.308,539.104,0.0
52377.0,STARLINK-3805,PAYLOAD,2023-03-31 02:07:03,15.08856229,0.0001251,53.2173,333.4096,91.0303,269.0833,0.001269,0.00019975,0.0,0 STARLINK-3805,1 52377U 22045AY  23090.08823202  .00019975  00000-0  12690-2 0  9997,2 52377  53.2173 333.4096 0001251  91.0303 269.0833 15.08856229 53689,6917.831,95.437,540.561,538.83,0.0
52377.0,STARLINK-3805,PAYLOAD,2023-03-31 16:25:31,15.08845772,0.0001961,53.2182,330.7308,117.0028,243.1165,0.00073885,0.00011492,0.0,0 STARLINK-3805,1 52377U 22045AY  23090.68439237  .00011492  00000-0  73885-3 0  9994,2 52377  53.2182 330.7308 0001961 117.0028 243.1165 15.08845772 53778,6917.863,95.437,541.084,538.371,0.0
52377.0,STARLINK-3805,PAYLOAD,2023-04-01 00:22:27,15.08846963,0.0001137,53.2172,329.2473,109.4833,250.6282,0.00087355,0.00013645,0.0,0 STARLINK-3805,1 52377U 22045AY  23091.01559313  .00013645  00000-0  87355-3 0  9999,2 52377  53.2172 329.2473 0001137 109.4833 250.6282 15.08846963 53829,6917.859,95.437,540.511,538.938,0.0
